label,category,locality,postal_code,latitude,longitude
L'Atelier Sauvage,CulturalSite,Landresse,25530,47.252377,6.5046
Point de vue du Fort Malher,Landform,La Cluse-et-Mijoux,25300,46.8763281,6.37801408
Point de vue de Renédale,Landform,Renédale,25520,47.0205244,6.27915181
Andréas corso - art cuir design,CulturalSite,Rouhe,25440,47.0822849,5.9615546
Médiathèque Intercommunale de la Vallée du Drugeon,CulturalSite,Frasne,25560,46.8569357,6.1610852
Poterie les mains et la terre,CulturalSite,Bief,25190,47.32627,6.76724
Chapelle des Forges-de-la-Ferrière,CulturalSite,Jougne,25370,46.746564,6.38111359
Le Chemin des Sens - Art et artisanat d'art,CulturalSite,Besançon,25000,47.23592,6.02173072
Techni-Café,CulturalSite,Devecey,25870,47.3304712,6.0164738
Castel Saint-Denis,CulturalSite,Scey-Maisières,25290,47.09563,6.08213
Sentier Botanique de Rurey,Landform,Rurey,25290,47.095478,6.009653
Histopad de la Saline royale,CulturalSite,Arc-et-Senans,25610,47.03148,5.77808
Eglise,CulturalSite,Saules,25580,47.1221869,6.197913
Saule en Fa,CulturalSite,Pontarlier,25300,46.90578,6.35404
Hopital Saint-Jacques,CulturalSite,Besançon,25000,47.2356406,6.02129101
La Basse Cour,CulturalSite,Baume-les-Dames,25110,47.3379189,6.3534798
État de siège,CulturalSite,Ornans,25290,47.1053673,6.14559945
Chapelle Notre-Dame de Lourdes,CulturalSite,Montperreux,25160,46.825355,6.341902
Maison du patrimoine et des forges,CulturalSite,Audincourt,25400,47.486678,6.83230238
SurmontouR - Rémi Steiner,CulturalSite,Grandfontaine,25320,47.20065,5.89389
Belvédère du Fourré,Landform,Valentigney,25700,47.4623141,6.81867429
Étang du Cougnet,Landform,Gilley,25650,47.0647537,6.50584533
Chapelle Sainte-Radegonde,CulturalSite,Vennes,25390,47.1594703,6.52807724
Moka Céramique,CulturalSite,Besançon,25000,47.2349884,6.0317802
Lac de Saint-Point,Landform,Malbuisson,25160,46.8105167,6.30855558
Ancienne tuilerie,CulturalSite,Malbrans,25620,47.120538,6.080704
Le Siège de Vauban - Carole Josso,CulturalSite,Besançon,25000,47.2423508,6.01758049
Église saint jacques,CulturalSite,Chaux-Neuve,25240,46.6805036,6.13202787
Anne-Lise Hammann Jeannot artiste peintre,CulturalSite,Franois,25770,47.2319,5.92287
Fonds Régional d'Art Contemporain,CulturalSite,Besançon,25000,47.2359841,6.03341546
Marie Claude Bastien - atelier de reliures,CulturalSite,Besançon,25000,47.2358,6.02522
Belvédère la Roche de Ruan,Landform,Maîche,25120,47.2558063,6.81654316
ENS - Le Pré-Bois des Bâties,Landform,Mouthe,25240,46.6796248,6.18799891
Médiathèque municipale de Pontarlier,CulturalSite,Pontarlier,25300,46.903862,6.35425729
Atelier de typographie Æncrages & co,CulturalSite,Baume-les-Dames,25110,47.351682,6.361033
Maison natale de Balthazar Gerard,CulturalSite,Vuillafans,25840,47.064357,6.212548
Le Vert Clair,CulturalSite,Les Hôpitaux-Neufs,25370,46.7762377,6.3680807
Chapelle de la Vierge immaculée,CulturalSite,Houtaud,25300,46.91659,6.30722
Musée Bost et de l'outil,CulturalSite,Laissey,25820,47.2978304,6.2325079
Le saut de Bonneille,Landform,Ornans,25290,47.0549174,6.12154392
Maison du Patrimoine,CulturalSite,Remoray-Boujeons,25160,46.7684332,6.23967146
"Le 19, Centre Regional d'Art Contemporain",CulturalSite,Montbéliard,25200,47.5106281,6.80055855
Temple Saint-Georges,CulturalSite,Montbéliard,25200,47.5092706,6.79162129
Cascade du Moulin de Vermondans,Landform,Plaimbois-Vennes,25390,47.1925685,6.55654024
Chapelle Notre-Dame du Refuge,CulturalSite,Besançon,25000,47.2357061,6.021291
Les artistes à la campagne,CulturalSite,Champlive,25360,47.2721383,6.2383261
Bibliothèque,CulturalSite,Maisons-du-Bois-Lièvremont,25650,46.96651,6.42033
Usine à Neige,CulturalSite,Métabief,25370,46.7707368,6.3529618
Oratoire Notre-Dame de la Salette,CulturalSite,Doubs,25300,46.92831,6.35152
L'Artisaloue,CulturalSite,Ornans,25290,47.1063,6.14698
Atelier de lutherie - Marc Boyadjian,CulturalSite,Pontarlier,25300,46.90372,6.35587
Hôpital Sainte-Croix et son apothicairerie,CulturalSite,Baume-les-Dames,25110,47.352791,6.358576
Médiathèque,CulturalSite,Métabief,25370,46.77331,6.34946
Sapin Président,Landform,Les Fourgs,25300,46.8195798,6.41580676
Bibliothèque municipale,CulturalSite,Arc-et-Senans,25610,47.033553,5.783943
Belvédère la Cendrée,Landform,Charquemont,25140,47.185528,6.84296627
Horloge Astronomique,CulturalSite,Besançon,25000,47.2336737,6.03101134
ENS - La basse Vallée de l'Allan,Landform,Brognard,25600,47.5215418,6.86916579
Belvédère de Mandeure,Landform,Mandeure,25350,47.4308538,6.7956717
Mont-Calvaire de Sombacour,CulturalSite,Bians-les-Usiers,25520,46.9486743,6.2609354
La Batterie des Roches,CulturalSite,Pont-de-Roide-Vermondans,25150,47.3737748,6.77990172
Château de Moncley,CulturalSite,Moncley,25170,47.3117121,5.88775127
Espace musée Sainte-Madeleine,CulturalSite,Besançon,25000,47.2401569,6.01954221
Le Jardin des Îles,CulturalSite,Éternoz,25330,47.00751,6.029552
Point de vue de la Fauconnière,Landform,Pontarlier,25300,46.8760641,6.36262893
Fonderie de cloches Ch. Obertino,CulturalSite,Labergement-Sainte-Marie,25160,46.7704571,6.2794429
La cascade de Vaux,Landform,Ornans,25580,47.108207,6.231073
Eglise Saint-Pierre de Boussières,CulturalSite,Boussières,25320,47.1569241,5.9039172
Galerie Charles Pouchon,CulturalSite,Mouthier-Haute-Pierre,25920,47.0397414,6.27420953
Point de vue du Moine,Landform,Mouthier-Haute-Pierre,25920,47.0294178,6.2687663
Atelier de confection de Cales à Diairi,CulturalSite,Montbéliard,25200,47.51829,6.78914365
Oratoire du pas de la Vierge,CulturalSite,Pontarlier,25300,46.90426,6.35218
Musée des Armées Lucien Roy,CulturalSite,Beure,25720,47.2070111,6.00483297
Fort du Mont-Bart,CulturalSite,Bavans,25550,47.4861423,6.76239269
Sauge Artisans du bois,CulturalSite,Montlebon,25500,47.01798,6.61387
Pierre de la dîme,CulturalSite,Mouthe,25240,46.7107332,6.19473356
Moulin de la Doue,CulturalSite,Abbévillers,25310,47.4074054,6.9159184
Chapelle des Anges,CulturalSite,Maîche,25120,47.2477993,6.7982369
Musée de la Cave de la Ville Haute,CulturalSite,Pays-de-Clerval,25340,47.393091,6.49695396
Porte Saint-Pierre,CulturalSite,Pontarlier,25300,46.9045363,6.35282579
Chapelle Notre-Dame des Anges,CulturalSite,Ouhans,25520,46.99856,6.2938
Médiathèque Jean Grosjean,CulturalSite,Baume-les-Dames,25110,47.3517917,6.36121809
Le Hameau du Fromage,CulturalSite,Cléron,25330,47.0797375,6.05325222
Ferme-Musée Grand'Combe-Châteleu,CulturalSite,Grand'Combe-Châteleu,25570,47.0301895,6.5734261
Belvédère Les Rochers du Bourbet,Landform,Les Bréseux,25120,47.2828158,6.78454602
Quentin baumlin céramique,CulturalSite,Cléron,25330,47.0871687,6.05664009
Musée la Maison Vigneronne d'Autrefois,CulturalSite,Rougemont,25680,47.4770139,6.35361671
Marcus et Gisèle,CulturalSite,Besançon,25000,47.2347813,6.02122807
Rochers du Cerf,Landform,Montbenoît,25650,46.980165,6.50736199
La Boutique des Créateurs,CulturalSite,Besançon,25000,47.2381899,6.02187202
Croix de pierre,CulturalSite,La Planée,25160,46.8409961,6.28237724
Jardin à la française du château de Jallerange,CulturalSite,Jallerange,25170,47.2535686,5.71830751
Chapelle Saint-Lazare,CulturalSite,Vuillecin,25300,46.93885,6.32162
Gouffre de Poudrey,Landform,Étalans,25580,47.1670762,6.24555587
Observatoire Ornithologique,Landform,La Rivière-Drugeon,25560,46.864962,6.21530299
Grotte de la Tante Airie,Landform,Pierrefontaine-lès-Blamont,25310,47.37524,6.84029
Le Défilé d'Entre-Roches et la grotte du Trésor,Landform,Les Combes,25500,47.0491666,6.58083333
Le puits de la Brême,Landform,Scey-Maisières,25290,47.1190483,6.11987481
Les savoirs-faire en mécanique horlogère et mécanique d’art inscrits à l’UNESCO,CulturalSite,Besançon,25000,47.2378874,6.0240133
Atelier de Sérigraphie,CulturalSite,Pontarlier,25300,46.9038488,6.3562172
Manufacture horlogère Vuillemin,CulturalSite,Franois,25770,47.227974,5.93433843
Les Prés d'Haut,Landform,Châtelblanc,25240,46.67591,6.1109
Belvédère du Fer à Cheval,Landform,La Cluse-et-Mijoux,25300,46.8758294,6.37773513
Belvédère le Saut de Gamache,Landform,Grosbois,25110,47.343722,6.319885
Anaïs vincent maroquinerie artisanale,CulturalSite,Arc-et-Senans,25610,47.0369529,5.822173
L'Observatoire de Besançon,CulturalSite,Besançon,25000,47.2475689,5.9906982
Le Pont Sarrazin,Landform,Vandoncourt,25230,47.4571496,6.91393794
Les Lumières Du Druide,CulturalSite,Montferrand-le-Château,25320,47.1795553,5.9036133
ENS - Pelouse de la Chaux,Landform,Étrabonne,25170,47.2330498,5.74235277
Église Saint-Bénigne,CulturalSite,Arc-et-Senans,25610,47.0367456,5.78882932
Belvédère de la Roche,Landform,Villers-sous-Chalamont,25270,46.8870239,6.04656788
Couvent des Ursulines,CulturalSite,Saint-Hippolyte,25190,47.318337,6.812392
Château médiéval de Montfaucon,CulturalSite,Montfaucon,25660,47.2461126,6.0784039
Musée d'Armes Anciennes,CulturalSite,La Cluse-et-Mijoux,25300,46.8728,6.3794
Belvédère du Peu,Landform,Laviron,25510,47.25631,6.55206
La galerie du Saint-Esprit,CulturalSite,Besançon,25000,47.2406769,6.02316532
"Visite audio-guidée de Montbéliard, cité des princes",CulturalSite,Montbéliard,25200,47.5089311,6.8024579
ENS - Pelouses de la Côte de Moini,Landform,Quingey,25440,47.1070077,5.87798068
Médiathèque municipale de Pontarlier,CulturalSite,Pontarlier,25300,46.90381,6.35429
"Musée Roger Comte ""Trianon""",CulturalSite,Hérimoncourt,25310,47.4470912,6.87837351
Le Pavillon des Sciences,CulturalSite,Montbéliard,25200,47.5057923,6.803854
Artisan Métallier,CulturalSite,Ornans,25290,47.1109077,6.1250979
Le Parc des Miches,CulturalSite,Montbéliard,25200,47.5121633,6.79134556
Point de vue la Cote,Landform,Le Bizot,25210,47.1347349,6.66891572
ENS - Zone humide de l'Étang du Breuillez,Landform,Bremondans,25530,47.2248325,6.38353834
Le grand saut,Landform,Ornans,25520,47.020235,6.278354
Centre d'Art d'Audincourt - Donation Patt,CulturalSite,Audincourt,25400,47.4813221,6.8380856
Potier de terre - Philippe Pichet,CulturalSite,Chapelle-d'Huin,25270,46.9380126,6.1996378
ENS - Lac de Bouverans et Marais du Varot,Landform,Bouverans,25560,46.83185,6.21239
Eglise Saint-Valère,CulturalSite,Bians-les-Usiers,25520,46.9702087,6.27538204
La Brassicomtoise : route des brasseurs de Franche-Comté,CulturalSite,Besançon,25000,47.2711117,6.0282445
Sources d'Arcier,Landform,Vaire,25220,47.2668087,6.1204469
Point de vue le creux de la haute roche,Landform,Charmoille,25380,47.2243481,6.67908668
Église de la présentation-de-notre-dame,CulturalSite,Métabief,25370,46.773705,6.35055199
Réserve naturelle régionale de la basse-savoureuse,Landform,Nommay,25600,47.5334305,6.85002575
Portail de l'ancienne chapelle des Annonciades,CulturalSite,Pontarlier,25300,46.9037624,6.35442765
Source Bleue,Landform,Montperreux,25160,46.8091113,6.32418722
Bibliothèque,CulturalSite,Montperreux,25160,46.8255076,6.34158002
Musée de L'Aventure Peugeot,CulturalSite,Sochaux,25600,47.5162173,6.83138905
Belvédère du Rocher d’Ully,Landform,Ornans,25290,47.0982952,6.15109559
Hôtel du Chambrier,CulturalSite,Besançon,25000,47.2345333,6.03065729
Tournage sur bois,CulturalSite,Montmahoux,25270,46.97917,6.03135
Fontaine de Greutal à Anteuil,CulturalSite,Anteuil,25340,47.385823,6.5546113
Les Ateliers du Feu,CulturalSite,Grand'Combe-Châteleu,25570,47.0233948,6.57047694
Belvédère du Bois du Croz,Landform,Le Crouzet,25240,46.70358,6.13636
ENS - Marais de Saône,Landform,Saône,25660,47.2272778,6.11348441
Les collines de Besançon,Landform,Besançon,25000,47.235422,6.0414505
Eglise de Leugney,CulturalSite,Bremondans,25530,47.247408,6.388755
Chapelle,CulturalSite,Échevannes,25580,47.076262,6.230205
Oratoire de la Vierge du Cotay,CulturalSite,Arçon,25300,46.94509,6.38394
Belvédère de Montperreux,Landform,Montperreux,25160,46.8290654,6.34217373
Écomusée - Maison Michaud,CulturalSite,Chapelle-des-Bois,25240,46.6294429,6.14069258
Point de vue du Gelot,Landform,L'Isle-sur-le-Doubs,25250,47.4491263,6.5817832
Le Vieux Lavoir,CulturalSite,Rougemont,25680,47.4799423,6.35386559
Bibliothèque Chenecey-Buillon,CulturalSite,Chenecey-Buillon,25440,47.140276,5.957364
Saline royale,CulturalSite,Arc-et-Senans,25610,47.03166,5.77852
Bibliothèque Myon,CulturalSite,Myon,25440,47.0262314,5.9434025
Papeterie Gemdoubs,CulturalSite,Novillars,25220,47.28226,6.13024
Bibliothèque,CulturalSite,Levier,25270,46.95426,6.11714
Atelier du lison,CulturalSite,Nans-sous-Sainte-Anne,25330,46.9753876,5.9960664
Bibliothèque,CulturalSite,La Cluse-et-Mijoux,25300,46.87158,6.37884
Chapelle Saint-Maurice,CulturalSite,Jougne,25370,46.7576296,6.39106738
Musée de la République du Saugeais - Abbaye de Montbenoît,CulturalSite,Montbenoît,25650,46.9928554,6.46231055
Château du Saint Esprit,CulturalSite,École-Valentin,25480,47.271086,5.9810244
Sentier de la Motte du Château,Landform,Montrond-le-Château,25660,47.14258,6.0468
Source de la Loue,Landform,Ouhans,25520,46.9985925,6.29370689
La vallée du Doubs,Landform,Baume-les-Dames,25110,47.336356,6.352681
Belvédère des roches de Clerval,Landform,Pays-de-Clerval,25340,47.3922065,6.50785798
Bibliothèque,CulturalSite,Houtaud,25300,46.91448,6.31531
L'Atelier de Sylvie,CulturalSite,Beutal,25250,47.4696255,6.6387567
Musée Phisalix d'Histoire Naturelle,CulturalSite,Mouthier-Haute-Pierre,25920,47.0400645,6.2748378
ENS - L'Étang du Brachet,Landform,Passonfontaine,25690,47.103195,6.419998
Le ravin du puits noir,Landform,Scey-Maisières,25290,47.1289764,6.12751375
Château de Vaire le Grand,CulturalSite,Vaire,25220,47.2837125,6.15049839
Église Saint-Pierre,CulturalSite,Pontarlier,25300,46.9041039,6.354242
"Médiathèque ""La passerelle""",CulturalSite,Ornans,25290,47.1058029,6.1460822
Les bornes de la principauté de Montbéliard,CulturalSite,Montbéliard,25200,47.5089311,6.8024579
Hôtel du Bouteiller,CulturalSite,Besançon,25000,47.23952,6.02355
"L’Engrenage, Maison de Couture et de la Mode",CulturalSite,Besançon,25000,47.2660444,6.05176602
La Grange Huguenet,CulturalSite,Besançon,25000,47.2468271,6.00811878
Eglise saint-laurent,CulturalSite,Mouthier-Haute-Pierre,25920,47.0402552,6.27516746
Musée Ledoux,CulturalSite,Arc-et-Senans,25610,47.0327231,5.77790833
Biscuiterie Cornu SA - Visite entreprise,CulturalSite,Fontain,25660,47.1904497,6.0160891
L'itinéraire des temples du Pays de Montbéliard,CulturalSite,Montbéliard,25200,47.5089458,6.80241772
Abbaye Notre-Dame de la Grâce-Dieu,CulturalSite,Chaux-lès-Passavant,25530,47.2487951,6.34681463
Hélène Heyberger Artiste-plasticienne,CulturalSite,Besançon,25000,47.22604,6.00587
Bibliothèque,CulturalSite,Boujailles,25560,46.88856,6.07907
Maison des ateliers,CulturalSite,Baume-les-Dames,25110,47.35056,6.36337
Bibliothèque,CulturalSite,Malbuisson,25160,46.79921,6.30447
Fontaine des Dames,CulturalSite,Besançon,25000,47.234951,6.0248411
Belvédère des Taillards,Landform,Villers-le-Lac,25130,47.0822213,6.69861013
L'Atelier de Suzy,CulturalSite,Ornans,25290,47.1064996,6.14683792
Chapelle de Notre-Dame de Consolation,CulturalSite,Consolation-Maisonnettes,25390,47.157612,6.605573
Table tactile du Musée Ledoux à la Saline royale,CulturalSite,Arc-et-Senans,25610,47.0327085,5.77786542
Bibliothèque,CulturalSite,Les Hôpitaux-Vieux,25370,46.7897949,6.3696595
Église abbatiale,CulturalSite,Baume-les-Dames,25110,47.352084,6.361967
Atelier des ursulines - lutherie du quatuor,CulturalSite,Liebvillers,25190,47.3177127,6.81167226
Ça tourne pas rond - Céramiqu'ta mère,CulturalSite,Villers-Grélot,25640,47.3554191,6.2278982
L'Atelier du Quai,CulturalSite,L'Isle-sur-le-Doubs,25250,47.44971,6.58381
Vallée du doubs en voiture,Landform,Baume-les-Dames,25110,47.341618,6.359603
"Application web ""l’aqueduc d’Arcier, patrimoine historique""",CulturalSite,Vaire,25220,47.2844629,6.14895937
Hôtel de ville,CulturalSite,Besançon,25000,47.2380182,6.0242842
Fonderie de cloches - Atelier cuir Obertino Morteau,CulturalSite,Morteau,25500,47.0635845,6.60630676
Aux forges d'antan,CulturalSite,Montgesoye,25111,47.1065212,6.1444176
Le Criollo chocolatier - Visite Entreprise,CulturalSite,Chalezeule,25220,47.26578,6.05988
Le Jardin botanique,CulturalSite,Besançon,25000,47.24456,5.9832
Bibliothèque,CulturalSite,Mouthe,25240,46.71025,6.19249
La cascade de la Tuffière,Landform,Châteauvieux-les-Fossés,25840,47.0529146,6.18625861
La chocolaterie debrie à montbéliard,CulturalSite,Montbéliard,25200,47.511242,6.798944
Belvédère de Vandoncourt,Landform,Vandoncourt,25230,47.4610803,6.91211875
La Cathédrale Saint-Jean,CulturalSite,Besançon,25000,47.2336372,6.0305339
Ebenisterie Laurent Vuillemin,CulturalSite,Grand'Combe-Châteleu,25570,47.0233738,6.57022654
Belvédère de la source,Landform,Mouthe,25240,46.704562,6.20953189
Les jeux de Gus,CulturalSite,Ornans,25290,47.10405,6.15349
Chapelle Sainte-Philomène,CulturalSite,Les Hôpitaux-Vieux,25370,46.789994,6.36919499
Arboretum du lavot,CulturalSite,Fournets-Luisans,25390,47.0796367,6.536125
Maison à Tourelle,CulturalSite,Baume-les-Dames,25110,47.352314,6.361441
Belvédère - Roche Champion et Roche Bernard,Landform,Chapelle-des-Bois,25240,46.588739,6.12560971
Atelier Cordeline,CulturalSite,Villers-Grélot,25640,47.3551206,6.2288618
La Fabrik de Mana,CulturalSite,Pontarlier,25300,46.90434,6.35527
Les Oizeaux de Passage,CulturalSite,Arc-et-Senans,25610,47.0314695,5.77884189
Le Minotaure,CulturalSite,Besançon,25000,47.2420656,6.02462834
ENS - La Source de la Doue,Landform,Glay,25310,47.402776,6.905519
Aérodrome de Besançon - Thise et ses hangars,CulturalSite,Thise,25220,47.277983,6.082739
Bibliothèque - Médiathèque,CulturalSite,Les Fourgs,25300,46.8333454,6.4069299
Parc naturel régional du Doubs Horloger,Landform,Les Fontenelles,25210,47.19465,6.74787
Cascade du Gour de Conche et Roche Tuffiere,Landform,Myon,25440,47.0108215,5.93250108
Chapelle Saint-Joseph des Bassots,CulturalSite,Villers-le-Lac,25130,47.059165,6.684754
Le Grand Séminaire de Besançon,CulturalSite,Besançon,25000,47.23551,6.02402
Statue du Marquis Jouffroy d'Abbans,CulturalSite,Besançon,25000,47.2398473,6.0204327
ATELIER MAPELCY,CulturalSite,Arc-et-Senans,25610,47.03646,5.78978
Château de Cléron,CulturalSite,Cléron,25330,47.0874303,6.0585308
Parc de la promenade du Doubs,CulturalSite,Voujeaucourt,25420,47.4742284,6.76937861
Bibliothèque,CulturalSite,Chaffois,25300,46.91533,6.26889
Chapelle Saint-Léger,CulturalSite,La Cluse-et-Mijoux,25300,46.87255,6.38678
Corniche de Goumois,Landform,Goumois,25470,47.2461385,6.94952945
Terres des Meix,CulturalSite,Rochejean,25370,46.7368078,6.29315851
Ferme-musée du Montagnon,CulturalSite,Fournets-Luisans,25390,47.1258192,6.55858039
Espace Charles Kieffer,CulturalSite,Seloncourt,25230,47.4628776,6.8583452
Le parc des Jonchets,CulturalSite,Grand-Charmont,25200,47.5262066,6.81666189
Post-Scriptum,CulturalSite,Ornans,25290,47.1124698,6.1427506
Lac des Mortes,Landform,Chapelle-des-Bois,25240,46.5856688,6.10278853
Musée de Paléontologie Géologie et des Minéraux,CulturalSite,Rougemont,25680,47.4791603,6.36520385
Belvédère de la Roche de Hautepierre,Landform,Les Premiers Sapins,25580,47.03568,6.29901
La Porte Noire,CulturalSite,Besançon,25000,47.2340623,6.0302679
Chapelle-conservatoire d’art sacré d’Ecole-Valentin,CulturalSite,École-Valentin,25480,47.27123,5.981221
Bibliothèque,CulturalSite,Arc-sous-Cicon,25520,47.05134,6.37988
Amica Décoration,CulturalSite,École-Valentin,25480,47.27918,5.99229
Musée animalier,CulturalSite,Jougne,25370,46.7605137,6.38955831
Paul Gonez - Sculpteur,CulturalSite,Besançon,25000,47.2437073,6.03495393
Vallée de l'Ognon,Landform,Thurey-le-Mont,25870,47.37274,6.12342
La Clé des Champs LCDC,CulturalSite,Mouthe,25240,46.71036,6.19972
Crêt Monniot,Landform,Arc-sous-Cicon,25520,47.0363215,6.41189575
Bibliothèque,CulturalSite,Jougne,25370,46.76065,6.38962
Château de Cordiron,CulturalSite,Burgille,25170,47.2659372,5.79955048
Galerie Bertrand-Hassoun,CulturalSite,Besançon,25000,47.23628,6.02812
Belvédère du Château,Landform,Ornans,25290,47.1124849,6.1422827
Théâtre antique de Mandeure,CulturalSite,Mandeure,25350,47.447829,6.79369999
Creativ'Aline,CulturalSite,Jallerange,25170,47.25454,5.72004
La boucle de Besançon,CulturalSite,Besançon,25000,47.2343684,6.02608664
Le Mont Saint Sorlin,Landform,Les Pontets,25240,46.7267384,6.14408099
Hôtel de l'Intendance,CulturalSite,Besançon,25000,47.2332584,6.02248191
Circuit découverte du coeur historique de Baume les Dames,CulturalSite,Baume-les-Dames,25110,47.35266,6.36167
Le Fort Lachaux,CulturalSite,Grand-Charmont,25200,47.5202776,6.82599739
Atelier d'art Yvette et Stéphane Doulcier,CulturalSite,Ornans,25290,47.1056801,6.14795219
PONTARLIER,CulturalSite,Pontarlier,25300,46.9041039,6.354242
La source du Pontet,Landform,Mouthier-Haute-Pierre,25920,47.0284848,6.28848201
Citadelle de Besançon,CulturalSite,Besançon,25000,47.2299592,6.03392232
Belvédère des deux Lacs,Landform,Brey-et-Maison-du-Bois,25240,46.7467722,6.2534365
Bibliothèque,CulturalSite,Vaux-et-Chantegrue,25160,46.81172,6.24916
Musée municipal d'Art et d'Histoire,CulturalSite,Pontarlier,25300,46.90432,6.35494689
ENS - La Reculée,Landform,Cussey-sur-Lison,25440,47.059299,5.955229
Château d'Etrabonne,CulturalSite,Étrabonne,25170,47.2340586,5.74274662
Eglise,CulturalSite,Scey-Maisières,25290,47.1153027,6.1044314
Point de vue de la Vierge du Choléra,Landform,Baume-les-Dames,25110,47.3517037,6.3674067
Mémoire vive,CulturalSite,Besançon,25000,47.2363994,6.02197852
MC Atelier d'Art,CulturalSite,Jallerange,25170,47.254584,5.721778
Source du Doubs,Landform,Mouthe,25240,46.7073817,6.20641708
Chapelle Notre-Dame du Mont,CulturalSite,Chaffois,25300,46.91377,6.27015
Roche blanche,Landform,Châtelblanc,25240,46.6706079,6.11500962
Le Morond,Landform,Métabief,25370,46.7511089,6.3538742
Point de vue le Seud,Landform,Charmauvillers,25470,47.2403428,6.91096565
Maison du ministre Courvoisier,CulturalSite,Baume-les-Dames,25110,47.35302,6.360692
Mali poterie,CulturalSite,Lods,25930,47.0460378,6.2468351
Cascade du Rougnon,Landform,Laissey,25820,47.29863,6.23388
Église saint claude,CulturalSite,Malbuisson,25160,46.798952,6.304696
Oratoire Notre-Dame des Côtes,CulturalSite,Oye-et-Pallet,25160,46.854427,6.331523
La promenade Micaud,CulturalSite,Besançon,25000,47.2416283,6.03085041
Fromagerie-Musée,CulturalSite,Trépot,25620,47.1671638,6.14888906
Château Montbéliard Wurtemberg,CulturalSite,Montbéliard,25200,47.5091716,6.80068731
Myotte-Duquet - Habitat de Caractère,CulturalSite,Fournets-Luisans,25390,47.11003,6.56136
Le Delta du Doubs,CulturalSite,Besançon,25000,47.2305119,6.02874755
Les Cuirs du Moulin,CulturalSite,Rougemont,25680,47.48117,6.32986
Chapelle oratoire Notre-Dame Secours des Chrétiens,CulturalSite,Aubonne,25520,47.03509,6.32653
Château de Belvoir,CulturalSite,Belvoir,25430,47.3181485,6.6030836
Basilique Sainte-Jeanne-Antide Thouret,CulturalSite,Sancey,25430,47.2966075,6.5835596
Point de vue de Chaon,Landform,Montperreux,25160,46.83571,6.34525
Route des Sapins,Landform,Levier,25270,46.9538897,6.117461
Musée minéralogique de la Grotte d'Osselle,CulturalSite,Roset-Fluans,25410,47.1385959,5.83636879
Oratoire du Sacré Coeur,CulturalSite,Granges-Narboz,25300,46.8793774,6.3170029
Le lavoir sous roche,CulturalSite,L'Isle-sur-le-Doubs,25250,47.45132,6.5778
Bibliothèque,CulturalSite,Gilley,25650,47.04808,6.47926
Église Saint-Martin,CulturalSite,Baume-les-Dames,25110,47.353281,6.361773
Château-musée Le Trésor des Séquanes,CulturalSite,Burgille,25170,47.267836,5.7868211
Église sainte catherine,CulturalSite,Les Hôpitaux-Neufs,25370,46.7772838,6.37292399
Jardin du curé,Landform,Remoray-Boujeons,25160,46.7683524,6.23969292
Oratoire Notre-Dame Reine de tous les Saints,CulturalSite,Saint-Gorgon-Main,25520,47.02343,6.32235
Ferme-musée la Pastorale,CulturalSite,Bonnevaux,25560,46.8089162,6.1830248
Le barrage du Châtelot,Landform,Villers-le-Lac,25130,47.1017471,6.74421949
Eglise Saint-Maimboeuf,CulturalSite,Montbéliard,25200,47.5097513,6.79195404
Musée du Temps,CulturalSite,Besançon,25000,47.23583,6.02655887
Sentier karstique du Grand Bois et grotte Maëva,Landform,Les Monts-Ronds,25660,47.1603543,6.06181642
MTR cuir,CulturalSite,Jallerange,25170,47.25186,5.71116
Atelier du Peintre - Michel Faillenet,CulturalSite,Ornans,25290,47.1048054,6.1491825
Françoise Graf,CulturalSite,Besançon,25000,47.2359201,6.02175851
Odile Bayle,CulturalSite,Morre,25660,47.22586,6.06626
Atelier Euphonia,CulturalSite,Vuillafans,25840,47.0651059,6.2172352
Chapelle de Montpetot,CulturalSite,La Cluse-et-Mijoux,25300,46.8704788,6.389575
La Fabrique du Chocolat,CulturalSite,Ornans,25290,47.1084178,6.1382217
ENS - Les Coteaux de Belvoir,Landform,Belvoir,25430,47.3209797,6.6072945
Réserve Naturelle Régionale Tourbières de Frasne Bouverans,Landform,Frasne,25560,46.8345963,6.15646361
École de Ski Internationale - ESI Métabief,Landform,Métabief,25370,46.7683443,6.35750591
Point de vue de Montaigu,Landform,Valoreille,25190,47.3010472,6.73120399
Moulin Scierie Marandet,CulturalSite,Bonnevaux,25560,46.80907,6.18429
Anne Dussuchal  mosaïste,CulturalSite,Besançon,25000,47.24273,6.04623
Atelier de typographie Affiche Moilkan,CulturalSite,Baume-les-Dames,25110,47.3538031,6.36184339
Compagnon  numérique musée Courbet,CulturalSite,Ornans,25290,47.1050452,6.14765172
Les sources du Cusancin,Landform,Cusance,25110,47.32417,6.43824
Jardin des Sens - Promenade de l'Helvétie,CulturalSite,Besançon,25000,47.2423931,6.02871537
Parc du Près-la-Rose,CulturalSite,Montbéliard,25200,47.505844,6.80310437
Église Saint-Bénigne,CulturalSite,Pontarlier,25300,46.9021247,6.35646286
Source du Lison,Landform,Nans-sous-Sainte-Anne,25330,46.967368,6.01037979
Ferme Courbet,CulturalSite,Flagey,25330,47.0370983,6.12295169
Chantier naval franco-suisse,CulturalSite,Villers-le-Lac,25130,47.0601636,6.6714273
Église Saint-Michel et ancien Couvent des Minimes,CulturalSite,Montlebon,25500,47.045118,6.607657
Église saint maurice,CulturalSite,Jougne,25370,46.760501,6.389525
Chapelle du Tourillot,CulturalSite,Les Fourgs,25300,46.8311319,6.41324758
Belvédère du Fort du Mont-Bart,Landform,Bavans,25550,47.4861423,6.7623927
Musée de la Pince,CulturalSite,Montécheroux,25190,47.3499571,6.806157
Bibliothèque Liesle,CulturalSite,Liesle,25440,47.061477,5.818988
Les bassins et le Saut du Doubs,Landform,Villers-le-Lac,25130,47.0868678,6.71419143
Bibliothèque,CulturalSite,Bians-les-Usiers,25520,46.96604,6.25814
Fontaine de la place Jean Cornet,CulturalSite,Besançon,25000,47.236034,6.02945566
Les Arts du Japon,CulturalSite,Ornans,25290,47.1066442,6.1469451
Médiathèque Intercommunale de la Vallée du Drugeon,CulturalSite,Frasne,25560,46.85695,6.1614
Le Pont Battant,CulturalSite,Besançon,25000,47.2398031,6.02055862
SOPHIE MD VITRAUX,CulturalSite,Les Premiers Sapins,25580,47.09386,6.34059
Atelier Bois - Trouttet - Ebenisterie,CulturalSite,Arc-et-Senans,25610,47.0349981,5.7843484
Grotte de la glacière et Maisons des minéraux,Landform,Chaux-lès-Passavant,25530,47.2487114,6.36396467
Atelier Courbet,CulturalSite,Ornans,25290,47.1068622,6.13919437
Calvaire  bief,CulturalSite,Bief,25190,47.3262722,6.76800727
Belvédère du Baron,Landform,Cour-Saint-Maurice,25380,47.2561314,6.71153132
Marqueterie d'art - Voyage au Cœur du Bois,CulturalSite,Charquemont,25140,47.2114277,6.82462935
Annick Généreux Créations AKG,CulturalSite,Blamont,25310,47.38372,6.85137
Église saint-point,CulturalSite,Saint-Point-Lac,25160,46.8136283,6.30194512
Musée de la Résistance et de la Déportation - Citadelle de Besançon,CulturalSite,Besançon,25000,47.23165,6.03185
Le Tuyé du Papy Gaby,CulturalSite,Gilley,25650,47.0541673,6.48234078
Musée des Maisons Comtoises,CulturalSite,Nancray,25360,47.23923,6.18471
Oratoire Notre-Dame,CulturalSite,Bugny,25520,46.99409,6.35484
Epicéa-Oratoire Notre-Dame,CulturalSite,Longevilles-Mont-d'Or,25370,46.75408,6.31619
Grotte d'Osselle,CulturalSite,Roset-Fluans,25410,47.1385959,5.83680331
Réserve naturelle du lac de Remoray,Landform,Labergement-Sainte-Marie,25160,46.7687198,6.2760637
Bibliothèque Intercommunale,CulturalSite,Amancey,25330,47.0376892,6.07101
Vaucher charpentes,CulturalSite,Épenoy,25680,47.13767,6.378487
Canal du Moulin et Petit Doubs,Landform,L'Isle-sur-le-Doubs,25250,47.45137,6.57839452
Parc Jeanine Dessay,CulturalSite,Pontarlier,25300,46.90555,6.35445
Verger communal de sauvegarde de Nans-sous-Sainte-Anne,Landform,Nans-sous-Sainte-Anne,25330,46.9777312,6.00320303
Bibliothèque - Médiathèque,CulturalSite,Oye-et-Pallet,25160,46.8548,6.33426
Ébéniste d'art - christophe roussel,CulturalSite,Cussey-sur-Lison,25440,47.0822511,5.96348409
Réseau des Sites Majeurs de Vauban,CulturalSite,Besançon,25034,47.2360324,6.0217623
Musée de la Taillanderie,CulturalSite,Nans-sous-Sainte-Anne,25330,46.970683,5.996197
Atelier de la belle Louise,CulturalSite,Montrond-le-Château,25660,47.143007,6.044892
Chapelle de la Grotte des Essards,CulturalSite,Arc-et-Senans,25610,47.0380698,5.7723251
Église,CulturalSite,Malpas,25160,46.828471,6.28948509
Plan d'eau du moulin,Landform,Glay,25310,47.4030507,6.89407518
Oratoire de la petite Sainte,CulturalSite,Dommartin,25300,46.92235,6.30734
Musée du Costume et des Traditions Comtoises,CulturalSite,Ornans,25290,47.1029708,6.1542931
Chapelle Notre-Dame du Mont,CulturalSite,Saint-Hippolyte,25190,47.3268104,6.81538581
Musée Courbet,CulturalSite,Ornans,25290,47.1049748,6.14774528
Maison des freres Grenier,CulturalSite,Baume-les-Dames,25110,47.353448,6.361693
ENS - Les Roches de Nans et le Bois du Châtel à Uzelle,Landform,Uzelle,25340,47.4627491,6.41487036
Oratoire Notre-Dame,CulturalSite,Bouverans,25560,46.8574492,6.21003951
Oratoire Notre-Dame,CulturalSite,Rochejean,25370,46.74631,6.29499
Peintres et Sculpteurs d'Ornans et sa Région,CulturalSite,Ornans,25290,47.1068046,6.14572469
Musée d'Art et d'Histoire Beurnier-Rossel (Fermé temporairement),CulturalSite,Montbéliard,25200,47.5099064,6.797678
Chapelle du Saint-Sepulcre,CulturalSite,Baume-les-Dames,25110,47.354738,6.36232
Le château Montbéliard Wurtemberg,CulturalSite,Montbéliard,25200,47.509385,6.8009759
Chapelle Niai-Nion,CulturalSite,Dommartin,25300,46.9294426,6.30699667
Le Parc des 2 Canaux,Landform,Allenjoie,25490,47.5200839,6.87198484
Chapelle Saint-Théodule,CulturalSite,Labergement-Sainte-Marie,25160,46.7851036,6.27148585
Tourbières Chapelle-des-Bois,Landform,Chapelle-des-Bois,25240,46.5836955,6.09569816
Finn-Est - Construction Maisons en Bois,CulturalSite,Le Bélieu,25500,47.1063486,6.6293714
Belvédère Notre Dame du Mont,Landform,Ornans,25290,47.1089924,6.1545562
Musée de la Paysannerie et des Vieux Métiers,CulturalSite,Valentigney,25700,47.4605287,6.83798074
Le Clos Barbisier,CulturalSite,Besançon,25000,47.242027,6.01934373
Musée Relais du Cheval de Trait Comtois et de la Fôret,CulturalSite,Levier,25270,46.954174,6.11698899
Maison de Pergaud,CulturalSite,Belmont,25530,47.2214455,6.36572539
Visite numérique de la boucle des sources,CulturalSite,Nans-sous-Sainte-Anne,25330,46.9671101,6.01080491
Musée des Beaux-Arts et d'Archéologie,CulturalSite,Besançon,25000,47.2400986,6.02288961
Atelier 1773,CulturalSite,Grand'Combe-Châteleu,25570,47.02974,6.57319
Parc de l'île en mouvement,CulturalSite,Montbéliard,25200,47.5048003,6.79029413
Lac du Morond,Landform,Longevilles-Mont-d'Or,25370,46.7481768,6.35523567
Les perles de Catherine,CulturalSite,Pouilley-les-Vignes,25115,47.25192,5.93661
Maison de Saint Joseph Marchand,CulturalSite,Passavant,25360,47.275495,6.382499
Dolmen de Santoche,Landform,Pays-de-Clerval,25340,47.4159356,6.49598201
Imprimerie Chopard,CulturalSite,Maîche,25120,47.2469601,6.81042391
Vallée du Cusancin,Landform,Cusance,25110,47.324743,6.437563
ENS - La Motte du Château,Landform,Montrond-le-Château,25660,47.1427485,6.04458566
Église,CulturalSite,Saint-Antoine,25370,46.777138,6.337655
Ébénisterie - Marqueterie - Le Bois Plaisir,CulturalSite,Dommartin,25300,46.9208687,6.3098879
"Route touristique ""montagnes du jura""",Landform,Pontarlier,25300,46.902096,6.359085
Eglise Sainte Madeleine,CulturalSite,Besançon,25000,47.2401132,6.01947784
Point de vue le Fondereau,Landform,Montandon,25190,47.2909493,6.81652574
Cascade de l'Audeux,Landform,Chaux-lès-Passavant,25530,47.251636,6.361617
Reflet Bois,CulturalSite,Malbuisson,25160,46.79453,6.29995
L'Ébauche,CulturalSite,Villers-le-Lac,25130,47.0582762,6.67010378
Maison de la chasse et de la nature,CulturalSite,Gonsans,25360,47.2364,6.30563
Point de vue la Rançonnière,Landform,Saint-Julien-lès-Russey,25210,47.2177954,6.72017162
Église de la nativité-de-saint-jean-baptiste,CulturalSite,Les Grangettes,25160,46.828084,6.31194967
Manufacture horlogère Utinam,CulturalSite,Besançon,25000,47.2360655,6.0270309
Franck barbier - Vannier,CulturalSite,Liesle,25610,47.0351049,5.76730689
Johann Marmier photographe,CulturalSite,Besançon,25000,47.2432,6.0217
Théâtre Bernard Blier,CulturalSite,Pontarlier,25300,46.9049963,6.35451793
Oratoire Notre Dame des Affligés,CulturalSite,Saint-Gorgon-Main,25520,47.0244685,6.32219979
Belvédère de Châtel Véron,Landform,Bonnevaux,25560,46.8224368,6.1967021
Les jardins de Fraîche-Comté,CulturalSite,Roset-Fluans,25410,47.1634427,5.8269011
Oratoire de la Planée,CulturalSite,La Planée,25160,46.84125,6.28192
Gour de Conche,Landform,Myon,25440,46.985183,5.92421
Jean-Louis Boucon sculteur,CulturalSite,Besançon,25000,47.26002,6.02314
Le Palais de Justice,CulturalSite,Besançon,25000,47.2375856,6.0237801
Château de Joux,CulturalSite,La Cluse-et-Mijoux,25300,46.8724737,6.37429374
Eglise Saint-Martin,CulturalSite,Pirey,25480,47.2617863,5.96437454
L'Orlogeur,CulturalSite,Les Écorces,25140,47.1877822,6.7992411
Belvédère du Lac à Chapelle Mijoux,Landform,La Cluse-et-Mijoux,25300,46.8376822,6.36933465
Sellerie Jadis,CulturalSite,Lantenne-Vertière,25170,47.23714,5.77089
Bibliothèque,CulturalSite,Bulle,25560,46.89392,6.2233
Ancien Hôtel Boitouset,CulturalSite,Besançon,25000,47.2339687,6.03079139
Les Attelages Aroules - Atelier du cuir,CulturalSite,Malpas,25160,46.8351835,6.29016637
Chapelle Saint-Antide,CulturalSite,Pontarlier,25300,46.93719,6.4242
Point de vue et mémorial d'Étrappe,Landform,Étrappe,25250,47.481564,6.5939949
Maison de monseigneur besson,CulturalSite,Baume-les-Dames,25110,47.353103,6.361049
Sylvie BUATOIS céramiste animalière RAKU,CulturalSite,Pelousey,25170,47.2755087,5.9211958
Jardin de méli-mélo,CulturalSite,Blussangeaux,25250,47.4295427,6.6140072
Musée Vie d'Antan,CulturalSite,Montlebon,25500,47.0264154,6.64082556
Le Mont de l'Herba,Landform,Les Hôpitaux-Vieux,25370,46.8042896,6.40837669
Eglise Saint-Pierre,CulturalSite,Maîche,25120,47.2517519,6.79952859
Eglise du Sacré-Coeur,CulturalSite,Audincourt,25400,47.4756997,6.84186969
Jeu de piste immersif “Serum PhisalX”,CulturalSite,Mouthier-Haute-Pierre,25920,47.0386409,6.27430752
Jacques Lacoste,CulturalSite,Nancray,25360,47.2491447,6.18562459
Chapelle de la délivrance,CulturalSite,Dompierre-les-Tilleuls,25560,46.8768366,6.1772833
Paul Boinay Ebénisterie Ferronerie d'Art,CulturalSite,Les Écorces,25140,47.1868208,6.7997981
Le Doubs,Landform,Pontarlier,25300,46.9048057,6.35855197
Parc de la Panse,CulturalSite,Seloncourt,25230,47.4602732,6.86600747
Jardins remarquables du château de Bournel,CulturalSite,Cubry,25680,47.4912248,6.42562866
Haut Fourneau de la forge de Montagney,CulturalSite,Montagney-Servigney,25680,47.4858259,6.3042067
Musée de la vigne et du vin,CulturalSite,Lods,25930,47.0449216,6.24774679
Eglise de l'Immaculee-Conception,CulturalSite,Audincourt,25400,47.48678,6.831771
Hôtel Gauthiot d'Ancier,CulturalSite,Besançon,25000,47.2391803,6.0219559
Site Carrier - site archéologique,CulturalSite,Baume-les-Dames,25110,47.362258,6.361599
Demeure de Monte au Lever,CulturalSite,Les Grangettes,25160,46.8265991,6.30762755
Les Rouages du Lac,CulturalSite,Montperreux,25160,46.8306505,6.3383104
Le parc des Sablières de Bart et de Courcelles,Landform,Bart,25420,47.4841865,6.78851894
Chapelle Notre-Dame,CulturalSite,Granges-Narboz,25300,46.87896,6.30802
Château Montalembert,CulturalSite,Maîche,25120,47.2521888,6.79905115
Chapelle de Vaux-Navier,CulturalSite,Arc-sous-Cicon,25520,47.05244,6.38262
Cité des Arts et de la Culture,CulturalSite,Besançon,25000,47.2364577,6.03297558
Musée du Tacot,CulturalSite,Cléron,25330,47.0870625,6.0578135
Maison Victor Hugo,CulturalSite,Besançon,25000,47.2346654,6.0291912
Mosaïque Lumière,CulturalSite,Besançon,25000,47.23907,6.02875
Hôtel Particulier des Sires de Neufchâtel,CulturalSite,Baume-les-Dames,25110,47.35279,6.36092
Pont du Diable,CulturalSite,Crouzet-Migette,25270,46.956144,6.01028
Saline royale,CulturalSite,Arc-et-Senans,25610,47.031934,5.77820777
La cascade du Bief de Caille,Landform,By,25440,47.0481195,5.89993819
Bibliothèque,CulturalSite,Rochejean,25370,46.74555,6.29413
Sentier interprétation: sur les pas d'isenbart,Landform,Noël-Cerneux,25500,47.1023473,6.66165678
ENS - La Gravière de Geneuille,Landform,Geneuille,25870,47.3246624,5.97802409
ENS - La Roche de Hautepierre-le-Châtelet,Landform,Les Premiers Sapins,25580,47.047899,6.28770837
EARL Bio Bug'z - Agri Bug'z,CulturalSite,Rougemont,25680,47.479679,6.3539709
Maison de la Réserve,CulturalSite,Labergement-Sainte-Marie,25160,46.7686475,6.27610087
Institut Gustave Courbet,CulturalSite,Ornans,25290,47.1046453,6.1482697
Château Médiéval de Montby,CulturalSite,Gondenans-Montby,25340,47.4396991,6.44227981
Bibliothèque,CulturalSite,Sainte-Colombe,25300,46.87863,6.26653
La City,CulturalSite,Besançon,25000,47.2351307,6.0151863
Bibliothèque,CulturalSite,Bonnevaux,25560,46.80813,6.18471
Volo Graphisme,CulturalSite,Besançon,25000,47.243791,5.9735637
Pierre Fumey - Céramiste,CulturalSite,Chouzelot,25440,47.1067045,5.8928549
"La Damassine, maison de la Nature et des Vergers",CulturalSite,Vandoncourt,25230,47.469327,6.90614089
Eglise Saint-Pierre,CulturalSite,Besançon,25000,47.2379571,6.0244131
Les Échelles de la Mort,Landform,Charquemont,25140,47.186203,6.87087027
Artisan sanglier,CulturalSite,Vaux-et-Chantegrue,25160,46.8089894,6.24863505
Fontaines Romaines d'Étrappe,CulturalSite,Étrappe,25250,47.475018,6.57895
Les étangs des Princes,Landform,Échenans,25550,47.5283502,6.70574539
Bibliothèque,CulturalSite,Vuillecin,25300,46.93888,6.32165
Savonnerie artisanale Ty’bulles,CulturalSite,Besançon,25480,47.27638,5.9949
Atelier d'Aulune,CulturalSite,Baume-les-Dames,25110,47.351591,6.360851
Église de la nativité de notre dame,CulturalSite,Remoray-Boujeons,25160,46.7582102,6.2217414
La Tour des Bois,Landform,La Tour-de-Sçay,25640,47.3695589,6.21623852
Point de vue le Réservoir,Landform,Bonnétage,25210,47.2017165,6.70330667
Bibliothèque,CulturalSite,Gellin,25240,46.73389,6.24014
Musée de la Meunerie de Métabief,CulturalSite,Métabief,25370,46.7746093,6.3465198
Église saint nicolas,CulturalSite,Oye-et-Pallet,25160,46.8547406,6.33097686
Le jardin du Casino,CulturalSite,Besançon,25000,47.2425738,6.03091038
Globe Sauter,CulturalSite,Besançon,25000,47.24825,6.02806
L'étang de Beutal,Landform,Beutal,25250,47.4732952,6.62768455
Temple Saint-Martin,CulturalSite,Montbéliard,25200,47.5101064,6.79750084
Eglise Notre-Dame de la Nativité,CulturalSite,Chazot,25430,47.3242796,6.54413938
Exposition d'Aquarelles,CulturalSite,Tarcenay-Foucherans,25620,47.1557436,6.1394188
Fontaine Bacchus,CulturalSite,Besançon,25000,47.2425825,6.02110862
Parc de la Grande Ile,CulturalSite,L'Isle-sur-le-Doubs,25250,47.4518417,6.57970344
Ramel - Gravure sur verre,CulturalSite,Cessey,25440,47.1133061,5.9160768
Étang de la rivière Drugeon,Landform,La Rivière-Drugeon,25560,46.8660596,6.21551513
Maison cristel,CulturalSite,Fesches-le-Châtel,25490,47.5156515,6.9201219
Espace découverte du Mont d'Or,CulturalSite,Métabief,25370,46.7472099,6.35555424
Chapelle Notre-Dame du Bon Secours,CulturalSite,Sainte-Colombe,25300,46.87736,6.26404
Eglise Saints Pierre et Paul,CulturalSite,Orchamps-Vennes,25390,47.130398,6.524809
L'Atelier de Gustave,CulturalSite,Ornans,25290,47.1030204,6.15230399
Belvédère des Granges Dessus,Landform,Granges-Narboz,25300,46.87311,6.32407
